start=new Date('2022-11-15T00:00:00.000Z').valueOf();
sats=[{"TLE_LINE2":"2 48357  53.0550  38.3333 0001270  62.5267 297.5851 15.06398549 84490","EPHEMERIS_TYPE":"0","MEAN_MOTION":"15.06398549","OBJECT_TYPE":"PAYLOAD","COUNTRY_CODE":"US","DECAY_DATE":null,"TIME_SYSTEM":"UTC","APOAPSIS":"548.098","MEAN_MOTION_DOT":"0.00001468","REF_FRAME":"TEME","CLASSIFICATION_TYPE":"U","NORAD_CAT_ID":"48357","BSTAR":"0.00011744000000","OBJECT_NAME":"STARLINK-2636","FILE":"3656014","INCLINATION":"53.0550","ARG_OF_PERICENTER":"62.5267","REV_AT_EPOCH":"8449","ELEMENT_SET_NO":"999","ECCENTRICITY":"0.00012700","CENTER_NAME":"EARTH","PERIOD":"95.592","GP_ID":"217783752","PERIAPSIS":"546.338","EPOCH":"2022-11-14T15:02:05.418240","TLE_LINE1":"1 48357U 21038E   22318.62645160  .00001468  00000-0  11744-3 0  9996","MEAN_ANOMALY":"297.5851","MEAN_ELEMENT_THEORY":"SGP4","RCS_SIZE":"LARGE","MEAN_MOTION_DDOT":"0.0000000000000","SITE":"AFETR","RA_OF_ASC_NODE":"38.3333","LAUNCH_DATE":"2021-05-04","OBJECT_ID":"2021-038E","SEMIMAJOR_AXIS":"6925.353"},{"BSTAR":"0.00087485000000","NORAD_CAT_ID":"48358","REF_FRAME":"TEME","CLASSIFICATION_TYPE":"U","MEAN_MOTION_DOT":"0.00012771","APOAPSIS":"548.213","COUNTRY_CODE":"US","OBJECT_TYPE":"PAYLOAD","DECAY_DATE":null,"TIME_SYSTEM":"UTC","MEAN_MOTION":"15.06393114","EPHEMERIS_TYPE":"0","TLE_LINE2":"2 48358  53.0557  38.3285 0001412  70.8911 289.2231 15.06393114 84482","SEMIMAJOR_AXIS":"6925.370","OBJECT_ID":"2021-038F","RA_OF_ASC_NODE":"38.3285","SITE":"AFETR","LAUNCH_DATE":"2021-05-04","RCS_SIZE":"LARGE","MEAN_ELEMENT_THEORY":"SGP4","MEAN_MOTION_DDOT":"0.0000000000000","TLE_LINE1":"1 48358U 21038F   22318.62002455  .00012771  00000-0  87485-3 0  9995","EPOCH":"2022-11-14T14:52:50.121120","MEAN_ANOMALY":"289.2231","PERIAPSIS":"546.257","PERIOD":"95.593","GP_ID":"217785004","ARG_OF_PERICENTER":"70.8911","ELEMENT_SET_NO":"999","ECCENTRICITY":"0.00014120","CENTER_NAME":"EARTH","REV_AT_EPOCH":"8448","OBJECT_NAME":"STARLINK-2624","INCLINATION":"53.0557","FILE":"3656014"},{"ARG_OF_PERICENTER":"74.7074","ELEMENT_SET_NO":"999","ECCENTRICITY":"0.00014350","CENTER_NAME":"EARTH","REV_AT_EPOCH":"8447","OBJECT_NAME":"STARLINK-2628","INCLINATION":"53.0553","FILE":"3656014","PERIAPSIS":"546.255","PERIOD":"95.593","GP_ID":"217784735","RCS_SIZE":"LARGE","MEAN_ELEMENT_THEORY":"SGP4","MEAN_MOTION_DDOT":"0.0000000000000","TLE_LINE1":"1 48359U 21038G   22318.54999202  .00005578  00000-0  39317-3 0  9990","EPOCH":"2022-11-14T13:11:59.310528","MEAN_ANOMALY":"285.4074","OBJECT_ID":"2021-038G","SEMIMAJOR_AXIS":"6925.384","RA_OF_ASC_NODE":"38.6466","SITE":"AFETR","LAUNCH_DATE":"2021-05-04","EPHEMERIS_TYPE":"0","TLE_LINE2":"2 48359  53.0553  38.6466 0001435  74.7074 285.4074 15.06388588 84472","COUNTRY_CODE":"US","OBJECT_TYPE":"PAYLOAD","DECAY_DATE":null,"TIME_SYSTEM":"UTC","MEAN_MOTION":"15.06388588","MEAN_MOTION_DOT":"0.00005578","APOAPSIS":"548.242","BSTAR":"0.00039317000000","CLASSIFICATION_TYPE":"U","REF_FRAME":"TEME","NORAD_CAT_ID":"48359"},{"MEAN_MOTION":"15.06397796","TIME_SYSTEM":"UTC","DECAY_DATE":null,"COUNTRY_CODE":"US","OBJECT_TYPE":"PAYLOAD","TLE_LINE2":"2 48360  53.0554  37.1749 0001426  85.9582 274.1570 15.06397796 85110","EPHEMERIS_TYPE":"0","REF_FRAME":"TEME","CLASSIFICATION_TYPE":"U","NORAD_CAT_ID":"48360","BSTAR":"0.00014715000000","APOAPSIS":"548.208","MEAN_MOTION_DOT":"0.00001911","GP_ID":"217761039","PERIOD":"95.592","PERIAPSIS":"546.233","INCLINATION":"53.0554","FILE":"3655935","OBJECT_NAME":"STARLINK-2622","ECCENTRICITY":"0.00014260","ELEMENT_SET_NO":"999","CENTER_NAME":"EARTH","REV_AT_EPOCH":"8511","ARG_OF_PERICENTER":"85.9582","LAUNCH_DATE":"2021-05-04","SITE":"AFETR","RA_OF_ASC_NODE":"37.1749","SEMIMAJOR_AXIS":"6925.355","OBJECT_ID":"2021-038H","MEAN_ANOMALY":"274.1570","TLE_LINE1":"1 48360U 21038H   22318.87803948  .00001911  00000-0  14715-3 0  9991","EPOCH":"2022-11-14T21:04:22.611072","MEAN_MOTION_DDOT":"0.0000000000000","RCS_SIZE":"LARGE","MEAN_ELEMENT_THEORY":"SGP4"},{"TIME_SYSTEM":"UTC","DECAY_DATE":null,"OBJECT_TYPE":"PAYLOAD","COUNTRY_CODE":"US","MEAN_MOTION":"15.06398143","EPHEMERIS_TYPE":"0","TLE_LINE2":"2 48361  53.0552  38.3854 0001506 101.4313 258.6845 15.06398143 84482","BSTAR":"-0.00000936650000","CLASSIFICATION_TYPE":"U","REF_FRAME":"TEME","NORAD_CAT_ID":"48361","MEAN_MOTION_DOT":"-0.00000421","APOAPSIS":"548.262","PERIAPSIS":"546.176","GP_ID":"217784253","PERIOD":"95.592","REV_AT_EPOCH":"8448","CENTER_NAME":"EARTH","ELEMENT_SET_NO":"999","ECCENTRICITY":"0.00015060","ARG_OF_PERICENTER":"101.4313","FILE":"3656014","INCLINATION":"53.0552","OBJECT_NAME":"STARLINK-2591","SEMIMAJOR_AXIS":"6925.354","OBJECT_ID":"2021-038J","LAUNCH_DATE":"2021-05-04","SITE":"AFETR","RA_OF_ASC_NODE":"38.3854","MEAN_MOTION_DDOT":"0.0000000000000","MEAN_ELEMENT_THEORY":"SGP4","RCS_SIZE":"LARGE","MEAN_ANOMALY":"258.6845","EPOCH":"2022-11-14T14:36:53.634240","TLE_LINE1":"1 48361U 21038J   22318.60895410 -.00000421  00000-0 -93665-5 0  9998"},{"TLE_LINE2":"2 48362  53.0542  38.2999 0001391  85.0516 275.0632 15.06395985 84494","EPHEMERIS_TYPE":"0","MEAN_MOTION":"15.06395985","DECAY_DATE":null,"TIME_SYSTEM":"UTC","OBJECT_TYPE":"PAYLOAD","COUNTRY_CODE":"US","APOAPSIS":"548.189","MEAN_MOTION_DOT":"0.00003614","REF_FRAME":"TEME","NORAD_CAT_ID":"48362","CLASSIFICATION_TYPE":"U","BSTAR":"0.00026144000000","INCLINATION":"53.0542","FILE":"3656014","OBJECT_NAME":"STARLINK-2578","REV_AT_EPOCH":"8449","ELEMENT_SET_NO":"999","ECCENTRICITY":"0.00013910","CENTER_NAME":"EARTH","ARG_OF_PERICENTER":"85.0516","GP_ID":"217784504","PERIOD":"95.592","PERIAPSIS":"546.263","MEAN_ANOMALY":"275.0632","EPOCH":"2022-11-14T15:24:41.922432","TLE_LINE1":"1 48362U 21038K   22318.64215188  .00003614  00000-0  26144-3 0  9992","MEAN_MOTION_DDOT":"0.0000000000000","MEAN_ELEMENT_THEORY":"SGP4","RCS_SIZE":"LARGE","LAUNCH_DATE":"2021-05-04","SITE":"AFETR","RA_OF_ASC_NODE":"38.2999","SEMIMAJOR_AXIS":"6925.361","OBJECT_ID":"2021-038K"},{"TLE_LINE2":"2 48363  53.0559  33.4895 0001285  76.8496 283.2636 15.06396662 84557","EPHEMERIS_TYPE":"0","MEAN_MOTION":"15.06396662","COUNTRY_CODE":"US","OBJECT_TYPE":"PAYLOAD","DECAY_DATE":null,"TIME_SYSTEM":"UTC","APOAPSIS":"548.114","MEAN_MOTION_DOT":"-0.00002140","REF_FRAME":"TEME","CLASSIFICATION_TYPE":"U","NORAD_CAT_ID":"48363","BSTAR":"-0.00012485000000","OBJECT_NAME":"STARLINK-2626","INCLINATION":"53.0559","FILE":"3656014","ARG_OF_PERICENTER":"76.8496","ELEMENT_SET_NO":"999","ECCENTRICITY":"0.00012850","CENTER_NAME":"EARTH","REV_AT_EPOCH":"8455","PERIOD":"95.592","GP_ID":"217785236","PERIAPSIS":"546.334","TLE_LINE1":"1 48363U 21038L   22318.58546705 -.00002140  00000-0 -12485-3 0  9996","EPOCH":"2022-11-14T14:03:04.353120","MEAN_ANOMALY":"283.2636","RCS_SIZE":"LARGE","MEAN_ELEMENT_THEORY":"SGP4","MEAN_MOTION_DDOT":"0.0000000000000","RA_OF_ASC_NODE":"33.4895","SITE":"AFETR","LAUNCH_DATE":"2021-05-04","SEMIMAJOR_AXIS":"6925.359","OBJECT_ID":"2021-038L"},{"BSTAR":"0.00006798500000","REF_FRAME":"TEME","CLASSIFICATION_TYPE":"U","NORAD_CAT_ID":"48364","MEAN_MOTION_DOT":"0.00000731","APOAPSIS":"548.214","COUNTRY_CODE":"US","OBJECT_TYPE":"PAYLOAD","TIME_SYSTEM":"UTC","DECAY_DATE":null,"MEAN_MOTION":"15.06393326","EPHEMERIS_TYPE":"0","TLE_LINE2":"2 48364  53.0551  33.9161 0001415  67.3454 292.7685 15.06393326 84547","OBJECT_ID":"2021-038M","SEMIMAJOR_AXIS":"6925.369","SITE":"AFETR","RA_OF_ASC_NODE":"33.9161","LAUNCH_DATE":"2021-05-04","RCS_SIZE":"LARGE","MEAN_ELEMENT_THEORY":"SGP4","MEAN_MOTION_DDOT":"0.0000000000000","TLE_LINE1":"1 48364U 21038M   22318.53388738  .00000731  00000-0  67985-4 0  9990","EPOCH":"2022-11-14T12:48:47.869632","MEAN_ANOMALY":"292.7685","PERIAPSIS":"546.254","PERIOD":"95.593","GP_ID":"217783503","ARG_OF_PERICENTER":"67.3454","ELEMENT_SET_NO":"999","CENTER_NAME":"EARTH","ECCENTRICITY":"0.00014150","REV_AT_EPOCH":"8454","OBJECT_NAME":"STARLINK-2611","INCLINATION":"53.0551","FILE":"3656014"},{"TLE_LINE2":"2 48365  53.0545  33.5905 0001172  91.5096 268.6027 15.06398190 84551","EPHEMERIS_TYPE":"0","MEAN_MOTION":"15.06398190","COUNTRY_CODE":"US","OBJECT_TYPE":"PAYLOAD","DECAY_DATE":null,"TIME_SYSTEM":"UTC","APOAPSIS":"548.031","MEAN_MOTION_DOT":"0.00001325","REF_FRAME":"TEME","CLASSIFICATION_TYPE":"U","NORAD_CAT_ID":"48365","BSTAR":"0.00010780000000","OBJECT_NAME":"STARLINK-2608","FILE":"3656014","INCLINATION":"53.0545","ARG_OF_PERICENTER":"91.5096","ELEMENT_SET_NO":"999","ECCENTRICITY":"0.00011720","CENTER_NAME":"EARTH","REV_AT_EPOCH":"8455","PERIOD":"95.592","GP_ID":"217783753","PERIAPSIS":"546.407","TLE_LINE1":"1 48365U 21038N   22318.55966584  .00001325  00000-0  10780-3 0  9994","EPOCH":"2022-11-14T13:25:55.128576","MEAN_ANOMALY":"268.6027","RCS_SIZE":"LARGE","MEAN_ELEMENT_THEORY":"SGP4","MEAN_MOTION_DDOT":"0.0000000000000","SITE":"AFETR","RA_OF_ASC_NODE":"33.5905","LAUNCH_DATE":"2021-05-04","OBJECT_ID":"2021-038N","SEMIMAJOR_AXIS":"6925.354"},{"APOAPSIS":"548.187","MEAN_MOTION_DOT":"0.00000553","CLASSIFICATION_TYPE":"U","REF_FRAME":"TEME","NORAD_CAT_ID":"48366","BSTAR":"0.00005598600000","TLE_LINE2":"2 48366  53.0566  28.0686 0001410  80.9539 279.1609 15.06401122 84631","EPHEMERIS_TYPE":"0","MEAN_MOTION":"15.06401122","COUNTRY_CODE":"US","OBJECT_TYPE":"PAYLOAD","TIME_SYSTEM":"UTC","DECAY_DATE":null,"TLE_LINE1":"1 48366U 21038P   22318.67992791  .00000553  00000-0  55986-4 0  9997","EPOCH":"2022-11-14T16:19:05.771424","MEAN_ANOMALY":"279.1609","RCS_SIZE":"MEDIUM","MEAN_ELEMENT_THEORY":"SGP4","MEAN_MOTION_DDOT":"0.0000000000000","SITE":"AFETR","RA_OF_ASC_NODE":"28.0686","LAUNCH_DATE":"2021-05-04","SEMIMAJOR_AXIS":"6925.345","OBJECT_ID":"2021-038P","OBJECT_NAME":"STARLINK-2631","INCLINATION":"53.0566","FILE":"3656014","ARG_OF_PERICENTER":"80.9539","ELEMENT_SET_NO":"999","ECCENTRICITY":"0.00014100","CENTER_NAME":"EARTH","REV_AT_EPOCH":"8463","PERIOD":"95.592","GP_ID":"217785005","PERIAPSIS":"546.234"}];
